0242P         2025 01  4.0440  3.955780  0.277983  246.1787  180.4598   32.4833  20201010   8.0  4.0  242P/Spahr                                               MPC 81861
0243P         2018 08 26.1700  2.452647  0.359869  283.5232   87.6521    7.6410  20201010  12.5  4.0  243P/NEAT                                                MPC111774
0244P         2022 11 16.0459  3.923482  0.198516   92.8924  353.9901    2.2592  20201010   9.0  4.0  244P/Scotti                                              MPEC 2020-SI8
0245P         2018 02  8.7949  2.193364  0.457510  316.8370  316.6490   21.1973  20201010  14.0  4.0  245P/WISE                                                MPEC 2020-K19
0246P         2021 02 22.7510  2.863967  0.286761  176.2832   78.7470   15.9875  20201010  10.5  4.0  246P/NEAT                                                MPEC 2020-SI8
0247P         2018 12  1.8183  1.491182  0.624401   47.4870   54.0107   13.6545  20201010  16.5  2.0  247P/LINEAR                                              MPC112394
0248P         2025 09 17.2664  2.168878  0.637979  209.8980  207.7543    6.3472  20201010  14.0  4.0  248P/Gibbs                                               MPC 75730
0249P         2020 06 29.4968  0.496776  0.820137   65.6075  239.1762    8.3967  20201010  15.5  4.0  249P/LINEAR                                              MPEC 2020-SI8
0250P         2018 02  1.3572  2.241884  0.403129   46.0121   73.6236   13.2165  20201010  14.5  4.0  250P/Larson                                              MPC110497
0251P         2017 07 16.4761  1.736145  0.505388   31.2702  219.3959   23.4018  20201010  16.5  2.0  251P/LINEAR                                              MPC104795
0252P         2021 07 10.9445  1.000365  0.671991  343.3087  190.9510   10.4098  20201010  17.5  4.0  252P/LINEAR                                              MPC102956
0253P         2018 05  7.9136  2.033642  0.413537  230.6382  146.8780    4.9428  20201010  14.5  4.0  253P/PANSTARRS                                           MPC112394
0254P         2020 09 29.6876  3.136989  0.320050  219.4851  129.1745   32.5725  20201010  11.0  4.0  254P/McNaught                                            MPEC 2020-SI8
0255P         2022 09  3.9045  0.828743  0.717795  185.3664  276.5458   13.8465  20201010   9.0  4.0  255P/Levy                                                NK   2214
0256P         2023 03 12.3604  2.697170  0.418288  124.2939   81.3514   27.6335  20201010  14.0  2.0  256P/LINEAR                                              MPC 84027
0257P         2020 09 10.7392  2.142440  0.430680  117.6491  207.7372   20.2220  20201010  11.5  4.0  257P/Catalina                                            MPEC 2020-SI8
0258P         2020 06 19.4519  3.481501  0.208940   26.0905  126.2483    6.7460  20201010  13.0  4.0  258P/PANSTARRS                                           MPC 79655
0259P         2022 02  8.3516  1.806390  0.338495  257.5909   51.4573   15.8886  20201010  15.5  4.0  259P/Garradd                                             MPC106349
0260P         2019 09 10.0034  1.416515  0.608969   18.4041  349.3439   15.0537  20201010  13.5  4.0  260P/McNaught                                            MPEC 2020-SI8
0261P         2019 06 18.7846  2.013338  0.423082   67.1363  291.1619    6.0760  20201010  14.0  4.0  261P/Larson                                              MPEC 2019-TG9
0262P         2012 11 30.2300  1.270431  0.815237  171.0018  217.8998   29.1822  20201010  13.5  4.0  262P/McNaught-Russell                                    MPC 82322
0263P         2023 02  1.1929  1.250899  0.590367   34.4299  105.8090   11.5484  20201010   9.0  4.0  263P/Gibbs                                               MPC 89018
0264P         2019 08  5.0708  2.437754  0.374636  346.7136  220.8142   25.1309  20201010  13.0  4.0  264P/Larsen                                              MPC114608
0266P         2020 04 19.4769  2.335136  0.339468   97.8394    4.9990    3.4260  20201010  12.5  4.0  266P/Christensen                                         MPEC 2019-TG9
0267P         2018 07 22.6394  1.239572  0.614094  114.1042  228.6519    6.1377  20201010  19.5  4.0  267P/LONEOS                                              MPC114608
0268P         2025 01  6.7162  2.402270  0.471936    0.0332  127.5871   16.1464  20201010  14.0  4.0  268P/Bernardi                                            MPC 92277
0269P         2014 09 30.4654  4.032432  0.430431  225.9450  241.7037    7.0707  20201010  10.0  4.0  269P/Jedicke                                             MPC104795
0270P         2013 06  6.9073  3.553965  0.467036  209.8898  222.9665    2.9181  20201010   8.0  4.0  270P/Gehrels                                             MPC 88332
0271P         2013 07 10.3224  4.273582  0.393567   36.4452    9.3000    6.8672  20201010  11.0  4.0  271P/van Houten-Lemmon                                   MPC 92277
0272P         2022 07 17.3565  2.431620  0.454182   27.9726  109.4653   18.0762  20201010  16.0  2.0  272P/NEAT                                                MPC 81862
0273P         2012 12 17.3642  0.823598  0.974059   20.3113  320.4006  136.7756  20201010  11.5  4.0  273P/Pons-Gambart                                        MPC 82723
0274P         2022 04  8.6595  2.453196  0.438812   38.5040   81.3377   15.8176  20201010  13.0  4.0  274P/Tombaugh-Tenagra                                    MPC 88332
0275P         2026 11  3.8727  1.659571  0.712468  174.0939  348.7574   21.2793  20201010  17.0  4.0  275P/Hermann                                             MPEC 2012-Y29
0275P         2026 11  3.8726  1.659571  0.712468  174.0939  348.7574   21.2793  20201010  17.0  4.0  275P/Hermann                                             MPC 81862
0276P         2024 12 17.2169  3.893511  0.267248  199.8761  211.4314   14.8164  20201010  11.5  4.0  276P/Vorobjov                                            MPEC 2020-K19
0277P         2020 12 30.1728  1.904464  0.505571  152.3180  276.3447   16.7788  20201010  14.0  4.0  277P/LINEAR                                              MPEC 2020-SI8
0278P         2020 09 12.0635  2.087036  0.435008  238.0872   15.4465    6.6850  20201010  14.0  4.0  278P/McNaught                                            MPEC 2020-SI8
0279P         2023 04 19.7354  2.151566  0.398195    5.7646  346.2283    5.0519  20201010  14.0  4.0  279P/La Sagra                                            MPC100285
0280P         2023 08  4.3496  2.636356  0.417903  104.8032  131.3938   11.7750  20201010  12.5  4.0  280P/Larsen                                              MPC 89013
0281P         2023 02  3.1542  4.034234  0.171629   26.8331   87.1733    4.7197  20201010  11.0  4.0  281P/MOSS                                                MPC 83145
0283P         2021 09  8.0456  2.131891  0.484997   22.2649  161.1329   14.4540  20201010  16.0  2.0  283P/Spacewatch                                          MPC 84027
0284P         2021 09 13.2203  2.294302  0.375968  202.6144  144.2729   11.8588  20201010  13.0  4.0  284P/McNaught                                            MPEC 2020-N31
0285P         2023 01 12.6146  1.721559  0.618170  178.4080  185.4916   25.0314  20201010  15.0  4.0  285P/LINEAR                                              MPC 85339
0286P         2022 05 12.5218  2.362293  0.425294   24.7850  283.9632   17.0449  20201010  14.0  4.0  286P/Christensen                                         MPC 90771
0287P         2023 07  4.1084  3.039030  0.270702  188.8622  139.0426   16.3194  20201010  13.5  4.0  287P/Christensen                                         MPC 96868
0288PK06VD9W  2022 03  3.6041  2.433993  0.201382  280.7075   83.1884    3.2402  20201010  16.0  2.0  288P/2006 VW139                                          MPC xxxxx
0289P         2019 12 20.9868  0.958778  0.685405    9.8802   68.8877    5.8941  20201010   2.5  4.0  289P/Blanpain                                            MPC118844
0290P         2014 02 25.2415  2.242581  0.637107  181.9368  302.6810   20.2588  20201010  10.5  4.0  290P/Jager                                               MPC 95214
0291P         2023 05  6.4467  2.545528  0.436119  173.9428  238.1700    6.3211  20201010  13.0  4.0  291P/NEAT                                                MPC 89314
0292P         2014 01 29.9218  2.518037  0.587834  319.4599   90.9949   24.2548  20201010  12.5  4.0  292P/Li                                                  MPC115887
0293P         2020 12 19.3000  2.119833  0.418282   41.0670   78.4120    9.0566  20201010  14.5  4.0  293P/Spacewatch                                          MPC 92278
0294P         2019 11 29.8413  1.299745  0.594724  235.5387  312.5900   18.2230  20201010  15.5  4.0  294P/LINEAR                                              MPEC 2020-SI8
0295P         2026 07 26.6436  2.037596  0.616020   72.9396    7.4174   21.0731  20201010  12.0  4.0  295P/LINEAR                                              MPC 93589
0296P         2020 09 17.9232  1.823425  0.478612  350.1254  263.6408   25.2346  20201010  14.0  4.0  296P/Garradd                                             MPEC 2020-SI8
0297P         2021 01 22.8321  2.343434  0.319211  132.4900   97.6598   10.3286  20201010  15.0  4.0  297P/Beshore                                             MPC102956
0298P         2020 09  6.3699  2.203168  0.386809  100.6899   52.8244    7.8701  20201010  15.0  4.0  298P/Christensen                                         MPC114609
0299P         2024 04 30.4593  3.148701  0.281812  323.9046  271.6248   10.4767  20201010  11.5  4.0  299P/Catalina-PANSTARRS                                  MPC101100
0300P         2018 11  2.2751  0.832338  0.691735  222.8727   95.6668    5.6761  20201010  16.0  4.0  300P/Catalina                                            MPC114609
